[{"OBJECT_NAME":"SALSAT","OBJECT_ID":"2020-068K","EPOCH":"2026-03-09T22:26:21.804576","MEAN_MOTION":15.28191989,"ECCENTRICITY":0.00082652,"INCLINATION":97.8859,"RA_OF_ASC_NODE":66.0795,"ARG_OF_PERICENTER":295.8051,"MEAN_ANOMALY":64.2334,"EPHEMERIS_TYPE":0,"CLASSIFICATION_TYPE":"U","NORAD_CAT_ID":46495,"ELEMENT_SET_NO":999,"REV_AT_EPOCH":30019,"BSTAR":0.00040842582,"MEAN_MOTION_DOT":0.00011156,"MEAN_MOTION_DDOT":0},{"OBJECT_NAME":"STARLINK-32212","OBJECT_ID":"2024-131B","EPOCH":"2026-03-09T08:31:31.198944","MEAN_MOTION":15.30199835,"ECCENTRICITY":0.00015095,"INCLINATION":53.1616,"RA_OF_ASC_NODE":54.2633,"ARG_OF_PERICENTER":79.1336,"MEAN_ANOMALY":280.9835,"EPHEMERIS_TYPE":0,"CLASSIFICATION_TYPE":"U","NORAD_CAT_ID":60256,"ELEMENT_SET_NO":999,"REV_AT_EPOCH":9166,"BSTAR":-6.7032466e-5,"MEAN_MOTION_DOT":-2.344e-5,"MEAN_MOTION_DDOT":0}]
